[Satellite]
VERSION=1.1
NAME=KIZUNA (WINDS)
NICKNAME=KIZUNA (WINDS)
TLE1=1 32500U 08007A   17186.09424295 -.00000264  00000-0  00000-0 0  9996
TLE2=2 32500   0.8708  90.2756 0002691  19.3031 350.6241  1.00270990 34252
